NORAD_CAT_ID,OBJECT_NAME,OBJECT_TYPE,EPOCH,MEAN_MOTION,ECCENTRICITY,INCLINATION,RA_OF_ASC_NODE,ARG_OF_PERICENTER,MEAN_ANOMALY,BSTAR,MEAN_MOTION_DOT,MEAN_MOTION_DDOT,TLE_LINE0,TLE_LINE1,TLE_LINE2,SEMIMAJOR_AXIS,PERIOD,APOGEE,PERIGEE,DECAYED
53894.0,STARLINK-5043,PAYLOAD,2023-07-26 15:36:06,15.08844031,0.0001322,53.2165,300.4784,67.8825,292.2307,0.00010856,1.44e-05,0.0,0 STARLINK-5043,1 53894U 22119J   23207.65007685  .00001440  00000-0  10856-3 0  9997,2 53894  53.2165 300.4784 0001322  67.8825 292.2307 15.08844031 47205,6917.868,95.437,540.648,538.819,0.0
53894.0,STARLINK-5043,PAYLOAD,2023-07-26 23:33:02,15.08845291,0.0001273,53.2168,298.9908,69.6137,290.4992,8.4381e-05,1.055e-05,0.0,0 STARLINK-5043,1 53894U 22119J   23207.98127604  .00001055  00000-0  84381-4 0  9994,2 53894  53.2168 298.9908 0001273  69.6137 290.4992 15.08845291 46835,6917.864,95.437,540.61,538.849,0.0
53894.0,STARLINK-5043,PAYLOAD,2023-07-27 17:02:16,15.08848745,9.46e-05,53.2179,295.7148,90.6752,269.4348,8.3963e-05,1.049e-05,0.0,0 STARLINK-5043,1 53894U 22119J   23208.70990932  .00001049  00000-0  83963-4 0  9995,2 53894  53.2179 295.7148 0000946  90.6752 269.4348 15.08848745 47368,6917.854,95.437,540.373,539.064,0.0
53894.0,STARLINK-5043,PAYLOAD,2023-07-27 23:23:49,15.08833741,8.79e-05,53.218,294.5218,131.6405,228.4663,-1.8839e-05,-5.87e-06,0.0,0 STARLINK-5043,1 53894U 22119J   23208.97487950 -.00000587  00000-0 -18839-4 0  9993,2 53894  53.2180 294.5218 0000879 131.6405 228.4663 15.08833741 46983,6917.9,95.438,540.373,539.156,0.0
53894.0,STARLINK-5043,PAYLOAD,2023-07-28 16:53:03,15.08841543,8.86e-05,53.2176,291.255,84.6785,275.4308,-4.7106e-05,-1.037e-05,0.0,0 STARLINK-5043,1 53894U 22119J   23209.70351699 -.00001037  00000-0 -47106-4 0  9995,2 53894  53.2176 291.2550 0000886  84.6785 275.4308 15.08841543 47097,6917.876,95.437,540.354,539.128,0.0
53894.0,STARLINK-5043,PAYLOAD,2023-07-29 16:43:50,15.08850054,6.45e-05,53.2165,286.7952,121.1457,238.9599,0.00011917,1.61e-05,0.0,0 STARLINK-5043,1 53894U 22119J   23210.69710875  .00001610  00000-0  11917-3 0  9995,2 53894  53.2165 286.7952 0000645 121.1457 238.9599 15.08850054 47246,6917.85,95.437,540.161,539.268,0.0
53894.0,STARLINK-5043,PAYLOAD,2023-07-30 10:13:05,15.08835668,0.0001214,53.2181,283.5242,98.3882,261.7247,0.00010801,1.431e-05,0.0,0 STARLINK-5043,1 53894U 22119J   23211.42576325  .00001431  00000-0  10801-3 0  9999,2 53894  53.2181 283.5242 0001214  98.3882 261.7247 15.08835668 47351,6917.894,95.438,540.598,538.919,0.0
53894.0,STARLINK-5043,PAYLOAD,2023-07-31 10:03:52,15.08845323,0.0001095,53.216,279.0626,93.7585,266.3533,8.8078e-05,1.114e-05,0.0,0 STARLINK-5043,1 53894U 22119J   23212.41935749  .00001114  00000-0  88078-4 0  9998,2 53894  53.2160 279.0626 0001095  93.7585 266.3533 15.08845323 47505,6917.864,95.437,540.487,538.972,0.0
53894.0,STARLINK-5043,PAYLOAD,2023-08-01 13:05:26,15.08845233,0.0001068,53.2165,274.0092,96.278,263.8334,4.9443e-06,-2.09e-06,0.0,0 STARLINK-5043,1 53894U 22119J   23213.54544048 -.00000209  00000-0  49443-5 0  9990,2 53894  53.2165 274.0092 0001068  96.2780 263.8334 15.08845233 47676,6917.864,95.437,540.468,538.991,0.0
53894.0,STARLINK-5043,PAYLOAD,2023-08-01 22:37:45,15.08837981,0.0001042,53.2163,272.224,93.2292,266.8819,5.1667e-05,5.35e-06,0.0,0 STARLINK-5043,1 53894U 22119J   23213.94288465  .00000535  00000-0  51667-4 0  9993,2 53894  53.2163 272.2240 0001042  93.2292 266.8819 15.08837981 47735,6917.887,95.438,540.472,539.031,0.0
53894.0,STARLINK-5043,PAYLOAD,2023-08-02 16:06:59,15.08846434,9.87e-05,53.2159,268.9526,89.4804,270.6301,7.1094e-05,8.44e-06,0.0,0 STARLINK-5043,1 53894U 22119J   23214.67151880  .00000844  00000-0  71094-4 0  9993,2 53894  53.2159 268.9526 0000987  89.4804 270.6301 15.08846434 47846,6917.861,95.437,540.409,539.043,0.0
53894.0,STARLINK-5043,PAYLOAD,2023-08-03 09:36:14,15.08840546,9.97e-05,53.2156,265.6796,92.9137,267.1969,8.1288e-05,1.006e-05,0.0,0 STARLINK-5043,1 53894U 22119J   23215.40016361  .00001006  00000-0  81288-4 0  9996,2 53894  53.2156 265.6796 0000997  92.9137 267.1969 15.08840546 47956,6917.879,95.438,540.433,539.054,0.0
53894.0,STARLINK-5043,PAYLOAD,2023-08-04 14:13:10,15.08842897,0.0001033,53.216,260.3277,91.8248,268.2862,5.831e-05,6.4e-06,0.0,0 STARLINK-5043,1 53894U 22119J   23216.59248381  .00000640  00000-0  58310-4 0  9999,2 53894  53.2160 260.3277 0001033  91.8248 268.2862 15.08842897 48136,6917.872,95.437,540.451,539.022,0.0
53894.0,STARLINK-5043,PAYLOAD,2023-08-05 09:17:47,15.0885145,0.0001067,53.2158,256.7603,83.9777,276.1337,9.7229e-05,1.26e-05,0.0,0 STARLINK-5043,1 53894U 22119J   23217.38735815  .00001260  00000-0  97229-4 0  9991,2 53894  53.2158 256.7603 0001067  83.9777 276.1337 15.08851450 48254,6917.845,95.437,540.449,538.972,0.0
53894.0,STARLINK-5043,PAYLOAD,2023-08-06 02:47:02,15.08839724,0.0001037,53.2152,253.4906,72.9773,287.1332,0.00015521,2.183e-05,0.0,0 STARLINK-5043,1 53894U 22119J   23218.11600313  .00002183  00000-0  15521-3 0  9996,2 53894  53.2152 253.4906 0001037  72.9773 287.1332 15.08839724 48368,6917.881,95.438,540.464,539.029,0.0
53894.0,STARLINK-5043,PAYLOAD,2023-08-07 02:37:51,15.08810035,0.0001057,53.2161,249.0295,98.3168,261.7944,0.00012242,1.66e-05,0.0,0 STARLINK-5043,1 53894U 22119J   23219.10962695  .00001660  00000-0  12242-3 0  9996,2 53894  53.2161 249.0295 0001057  98.3168 261.7944 15.08810035 48510,6917.972,95.439,540.568,539.106,0.0
53894.0,STARLINK-5043,PAYLOAD,2023-08-07 10:34:46,15.0882853,0.0001233,53.2167,247.5434,98.3514,261.7618,-8.463e-05,-1.634e-05,0.0,0 STARLINK-5043,1 53894U 22119J   23219.44082102 -.00001634  00000-0 -84630-4 0  9993,2 53894  53.2167 247.5434 0001233  98.3514 261.7618 15.08828530 48567,6917.915,95.438,540.633,538.927,0.0
53894.0,STARLINK-5043,PAYLOAD,2023-08-08 08:50:10,15.08832842,0.0001097,53.2157,243.3789,93.1142,266.9975,6.3651e-05,7.25e-06,0.0,0 STARLINK-5043,1 53894U 22119J   23220.36817954  .00000725  00000-0  63651-4 0  9995,2 53894  53.2157 243.3789 0001097  93.1142 266.9975 15.08832842 48701,6917.902,95.438,540.526,539.008,0.0
53894.0,STARLINK-5043,PAYLOAD,2023-08-09 08:40:57,15.08840628,0.000107,53.2157,238.9178,94.3884,265.7231,0.00021203,3.088e-05,0.0,0 STARLINK-5043,1 53894U 22119J   23221.36177717  .00003088  00000-0  21203-3 0  9993,2 53894  53.2157 238.9178 0001070  94.3884 265.7231 15.08840628 48859,6917.878,95.438,540.484,539.003,0.0
53894.0,STARLINK-5043,PAYLOAD,2023-08-10 10:07:07,15.08847396,0.0001083,53.2157,234.1598,95.6578,264.4537,0.0001419,1.972e-05,0.0,0 STARLINK-5043,1 53894U 22119J   23222.42161408  .00001972  00000-0  14190-3 0  9998,2 53894  53.2157 234.1598 0001083  95.6578 264.4537 15.08847396 49014,6917.858,95.437,540.472,538.974,0.0
53894.0,STARLINK-5043,PAYLOAD,2023-08-11 00:25:35,15.08844518,0.0001139,53.2154,231.483,89.3307,270.7815,4.3886e-05,4.11e-06,0.0,0 STARLINK-5043,1 53894U 22119J   23223.01777628  .00000411  00000-0  43886-4 0  9993,2 53894  53.2154 231.4830 0001139  89.3307 270.7815 15.08844518 49104,6917.867,95.437,540.52,538.944,0.0
53894.0,STARLINK-5043,PAYLOAD,2023-08-12 06:37:55,15.08848174,0.0001467,53.2138,225.8324,95.7117,264.4043,-6.5854e-05,-1.336e-05,0.0,0 STARLINK-5043,1 53894U 22119J   23224.27633238 -.00001336  00000-0 -65854-4 0  9998,2 53894  53.2138 225.8324 0001467  95.7117 264.4043 15.08848174 49290,6917.855,95.437,540.735,538.706,0.0
53894.0,STARLINK-5043,PAYLOAD,2023-08-13 11:14:51,15.08846233,0.0001257,53.2146,220.4803,83.1836,276.9299,7.7943e-05,9.53e-06,0.0,0 STARLINK-5043,1 53894U 22119J   23225.46864786  .00000953  00000-0  77943-4 0  9998,2 53894  53.2146 220.4803 0001257  83.1836 276.9299 15.08846233 49473,6917.861,95.437,540.596,538.857,0.0
53894.0,STARLINK-5043,PAYLOAD,2023-08-14 06:19:29,15.08838821,0.0001276,53.2158,216.9116,84.9276,275.1861,4.2229e-05,3.84e-06,0.0,0 STARLINK-5043,1 53894U 22119J   23226.26353352  .00000384  00000-0  42229-4 0  9996,2 53894  53.2158 216.9116 0001276  84.9276 275.1861 15.08838821 49594,6917.884,95.438,540.632,538.866,0.0
53894.0,STARLINK-5043,PAYLOAD,2023-08-15 09:21:02,15.08840747,0.0001266,53.2157,211.8564,86.4204,273.6933,1.6199e-05,-3e-07,0.0,0 STARLINK-5043,1 53894U 22119J   23227.38961377 -.00000030  00000-0  16199-4 0  9998,2 53894  53.2157 211.8564 0001266  86.4204 273.6933 15.08840747 49763,6917.878,95.438,540.619,538.867,0.0
53894.0,STARLINK-5043,PAYLOAD,2023-08-16 15:33:22,15.08839025,0.0001248,53.2163,206.2067,90.2583,269.8552,2.7727e-05,1.53e-06,0.0,0 STARLINK-5043,1 53894U 22119J   23228.64817601  .00000153  00000-0  27727-4 0  9992,2 53894  53.2163 206.2067 0001248  90.2583 269.8552 15.08839025 49951,6917.883,95.438,540.612,538.885,0.0
53894.0,STARLINK-5043,PAYLOAD,2023-08-16 21:54:55,15.0883154,0.0001266,53.2163,205.0174,93.163,266.9507,6.3304e-05,7.2e-06,0.0,0 STARLINK-5043,1 53894U 22119J   23228.91314104  .00000720  00000-0  63304-4 0  9993,2 53894  53.2163 205.0174 0001266  93.1630 266.9507 15.08831540 49998,6917.906,95.438,540.647,538.895,0.0
53894.0,STARLINK-5043,PAYLOAD,2023-08-17 07:27:13,15.08840035,0.000129,53.2162,203.2333,92.669,267.445,6.9183e-05,8.13e-06,0.0,0 STARLINK-5043,1 53894U 22119J   23229.31057657  .00000813  00000-0  69183-4 0  9999,2 53894  53.2162 203.2333 0001290  92.6690 267.4450 15.08840035 50052,6917.88,95.438,540.638,538.853,0.0
53894.0,STARLINK-5043,PAYLOAD,2023-08-18 02:31:51,15.08834242,0.0001345,53.2167,199.6652,94.1528,265.9618,4.3806e-05,4.09e-06,0.0,0 STARLINK-5043,1 53894U 22119J   23230.10546271  .00000409  00000-0  43806-4 0  9998,2 53894  53.2167 199.6652 0001345  94.1528 265.9618 15.08834242 50172,6917.898,95.438,540.693,538.833,0.0
53894.0,STARLINK-5043,PAYLOAD,2023-08-18 10:28:47,15.08842331,0.0001348,53.2162,198.1777,93.3147,266.7999,6.6269e-05,7.67e-06,0.0,0 STARLINK-5043,1 53894U 22119J   23230.43665701  .00000767  00000-0  66269-4 0  9999,2 53894  53.2162 198.1777 0001348  93.3147 266.7999 15.08842331 50225,6917.873,95.437,540.671,538.806,0.0
